start=new Date('2021-12-09T00:00:00.000Z').valueOf();
sats=[{"SEMIMAJOR_AXIS":"6925.359","OBJECT_ID":"2020-070F","OBJECT_TYPE":"PAYLOAD","MEAN_MOTION_DOT":"-0.00000684","RCS_SIZE":"LARGE","NORAD_CAT_ID":"46537","TIME_SYSTEM":"UTC","SITE":"AFETR","REV_AT_EPOCH":"6557","CENTER_NAME":"EARTH","TLE_LINE2":"2 46537  53.0535 304.0586 0002230  52.9556 307.1637 15.06396563 65577","EPOCH":"2021-12-08T15:18:36.860832","PERIAPSIS":"545.680","BSTAR":"-0.00002703400000","MEAN_MOTION_DDOT":"0.0000000000000","RA_OF_ASC_NODE":"304.0586","COUNTRY_CODE":"US","GP_ID":"191363946","APOAPSIS":"548.768","OBJECT_NAME":"STARLINK-1672","MEAN_ANOMALY":"307.1637","ARG_OF_PERICENTER":"52.9556","MEAN_MOTION":"15.06396563","FILE":"3235972","REF_FRAME":"TEME","INCLINATION":"53.0535","ELEMENT_SET_NO":"999","LAUNCH_DATE":"2020-10-06","ECCENTRICITY":"0.00022300","PERIOD":"95.592","DECAY_DATE":null,"CLASSIFICATION_TYPE":"U","MEAN_ELEMENT_THEORY":"SGP4","EPHEMERIS_TYPE":"0","TLE_LINE1":"1 46537U 20070F   21342.63792663 -.00000684  00000-0 -27034-4 0  9998"},{"ECCENTRICITY":"0.00018730","CLASSIFICATION_TYPE":"U","PERIOD":"95.592","DECAY_DATE":null,"TLE_LINE1":"1 46538U 20070G   21342.94754640 -.00000357  00000-0 -50786-5 0  9994","EPHEMERIS_TYPE":"0","MEAN_ELEMENT_THEORY":"SGP4","GP_ID":"191364196","OBJECT_NAME":"STARLINK-1678","APOAPSIS":"548.514","MEAN_MOTION":"15.06399016","MEAN_ANOMALY":"299.3600","ARG_OF_PERICENTER":"60.7576","ELEMENT_SET_NO":"999","LAUNCH_DATE":"2020-10-06","FILE":"3235972","REF_FRAME":"TEME","INCLINATION":"53.0544","CENTER_NAME":"EARTH","EPOCH":"2021-12-08T22:44:28.008960","PERIAPSIS":"545.919","TLE_LINE2":"2 46538  53.0544 302.6645 0001873  60.7576 299.3600 15.06399016 65612","RA_OF_ASC_NODE":"302.6645","COUNTRY_CODE":"US","BSTAR":"-0.00000507860000","MEAN_MOTION_DDOT":"0.0000000000000","OBJECT_ID":"2020-070G","SEMIMAJOR_AXIS":"6925.352","OBJECT_TYPE":"PAYLOAD","MEAN_MOTION_DOT":"-0.00000357","NORAD_CAT_ID":"46538","TIME_SYSTEM":"UTC","RCS_SIZE":"LARGE","REV_AT_EPOCH":"6561","SITE":"AFETR"},{"EPHEMERIS_TYPE":"0","TLE_LINE1":"1 46539U 20070H   21342.92046715  .00076085  00000-0  35499-2 0  9990","MEAN_ELEMENT_THEORY":"SGP4","CLASSIFICATION_TYPE":"U","PERIOD":"94.788","DECAY_DATE":null,"ECCENTRICITY":"0.00012110","LAUNCH_DATE":"2020-10-06","ELEMENT_SET_NO":"999","INCLINATION":"53.0568","FILE":"3235972","REF_FRAME":"TEME","MEAN_MOTION":"15.19184587","ARG_OF_PERICENTER":"31.9649","MEAN_ANOMALY":"328.1419","OBJECT_NAME":"STARLINK-1684","APOAPSIS":"509.140","GP_ID":"191364948","COUNTRY_CODE":"US","RA_OF_ASC_NODE":"301.8730","MEAN_MOTION_DDOT":"0.0000000000000","BSTAR":"0.00354990000000","PERIAPSIS":"507.472","EPOCH":"2021-12-08T22:05:28.361760","TLE_LINE2":"2 46539  53.0568 301.8730 0001211  31.9649 328.1419 15.19184587 65632","CENTER_NAME":"EARTH","REV_AT_EPOCH":"6563","SITE":"AFETR","NORAD_CAT_ID":"46539","TIME_SYSTEM":"UTC","RCS_SIZE":"LARGE","MEAN_MOTION_DOT":"0.00076085","OBJECT_TYPE":"PAYLOAD","OBJECT_ID":"2020-070H","SEMIMAJOR_AXIS":"6886.441"},{"COUNTRY_CODE":"US","RA_OF_ASC_NODE":"285.7194","MEAN_MOTION_DDOT":"0.0000000000000","BSTAR":"-0.00001160600000","PERIAPSIS":"545.711","EPOCH":"2021-12-08T06:19:52.528224","TLE_LINE2":"2 46541  53.0545 285.7194 0002164  58.9271 301.1930 15.06401396 65794","CENTER_NAME":"EARTH","REV_AT_EPOCH":"6579","SITE":"AFETR","TIME_SYSTEM":"UTC","NORAD_CAT_ID":"46541","RCS_SIZE":"LARGE","MEAN_MOTION_DOT":"-0.00000455","OBJECT_TYPE":"PAYLOAD","OBJECT_ID":"2020-070K","SEMIMAJOR_AXIS":"6925.344","EPHEMERIS_TYPE":"0","TLE_LINE1":"1 46541U 20070K   21342.26380241 -.00000455  00000-0 -11606-4 0  9991","MEAN_ELEMENT_THEORY":"SGP4","CLASSIFICATION_TYPE":"U","DECAY_DATE":null,"PERIOD":"95.592","ECCENTRICITY":"0.00021640","LAUNCH_DATE":"2020-10-06","ELEMENT_SET_NO":"999","FILE":"3235746","REF_FRAME":"TEME","INCLINATION":"53.0545","MEAN_MOTION":"15.06401396","MEAN_ANOMALY":"301.1930","ARG_OF_PERICENTER":"58.9271","OBJECT_NAME":"STARLINK-1687","APOAPSIS":"548.708","GP_ID":"191334958"},{"APOAPSIS":"548.666","OBJECT_NAME":"STARLINK-1692","GP_ID":"191363446","REF_FRAME":"TEME","FILE":"3235972","INCLINATION":"53.0548","LAUNCH_DATE":"2020-10-06","ELEMENT_SET_NO":"999","MEAN_ANOMALY":"300.9441","ARG_OF_PERICENTER":"59.1753","MEAN_MOTION":"15.06396217","PERIOD":"95.592","DECAY_DATE":null,"CLASSIFICATION_TYPE":"U","ECCENTRICITY":"0.00020810","MEAN_ELEMENT_THEORY":"SGP4","TLE_LINE1":"1 46542U 20070L   21342.92911048  .00001141  00000-0  95532-4 0  9991","EPHEMERIS_TYPE":"0","MEAN_MOTION_DOT":"0.00001141","OBJECT_TYPE":"PAYLOAD","SEMIMAJOR_AXIS":"6925.360","OBJECT_ID":"2020-070L","SITE":"AFETR","REV_AT_EPOCH":"6561","RCS_SIZE":"LARGE","NORAD_CAT_ID":"46542","TIME_SYSTEM":"UTC","CENTER_NAME":"EARTH","MEAN_MOTION_DDOT":"0.0000000000000","BSTAR":"0.00009553200000","COUNTRY_CODE":"US","RA_OF_ASC_NODE":"302.7477","TLE_LINE2":"2 46542  53.0548 302.7477 0002081  59.1753 300.9441 15.06396217 65618","PERIAPSIS":"545.784","EPOCH":"2021-12-08T22:17:55.145472"},{"TLE_LINE1":"1 46543U 20070M   21342.91437304 -.00000187  00000-0  63829-5 0  9994","EPHEMERIS_TYPE":"0","MEAN_ELEMENT_THEORY":"SGP4","CLASSIFICATION_TYPE":"U","DECAY_DATE":null,"PERIOD":"95.593","ECCENTRICITY":"0.00020260","ELEMENT_SET_NO":"999","LAUNCH_DATE":"2020-10-06","REF_FRAME":"TEME","FILE":"3235972","INCLINATION":"53.0548","MEAN_MOTION":"15.06391891","ARG_OF_PERICENTER":"58.7600","MEAN_ANOMALY":"301.3587","OBJECT_NAME":"STARLINK-1693","APOAPSIS":"548.641","GP_ID":"191363696","RA_OF_ASC_NODE":"302.8042","COUNTRY_CODE":"US","BSTAR":"0.00000638290000","MEAN_MOTION_DDOT":"0.0000000000000","EPOCH":"2021-12-08T21:56:41.830656","PERIAPSIS":"545.835","TLE_LINE2":"2 46543  53.0548 302.8042 0002026  58.7600 301.3587 15.06391891 65612","CENTER_NAME":"EARTH","REV_AT_EPOCH":"6561","SITE":"AFETR","NORAD_CAT_ID":"46543","TIME_SYSTEM":"UTC","RCS_SIZE":"LARGE","MEAN_MOTION_DOT":"-0.00000187","OBJECT_TYPE":"PAYLOAD","OBJECT_ID":"2020-070M","SEMIMAJOR_AXIS":"6925.373"},{"TIME_SYSTEM":"UTC","NORAD_CAT_ID":"46544","RCS_SIZE":"LARGE","REV_AT_EPOCH":"6577","SITE":"AFETR","OBJECT_ID":"2020-070N","SEMIMAJOR_AXIS":"6925.382","OBJECT_TYPE":"PAYLOAD","MEAN_MOTION_DOT":"-0.00000278","PERIAPSIS":"545.997","EPOCH":"2021-12-08T13:53:01.834944","TLE_LINE2":"2 46544  53.0553 289.3163 0001805  58.5007 301.6158 15.06389233 65776","COUNTRY_CODE":"US","RA_OF_ASC_NODE":"289.3163","MEAN_MOTION_DDOT":"0.0000000000000","BSTAR":"0.00000025035000","CENTER_NAME":"EARTH","MEAN_MOTION":"15.06389233","ARG_OF_PERICENTER":"58.5007","MEAN_ANOMALY":"301.6158","LAUNCH_DATE":"2020-10-06","ELEMENT_SET_NO":"999","FILE":"3235972","REF_FRAME":"TEME","INCLINATION":"53.0553","GP_ID":"191364448","OBJECT_NAME":"STARLINK-1694","APOAPSIS":"548.497","EPHEMERIS_TYPE":"0","TLE_LINE1":"1 46544U 20070N   21342.57849346 -.00000278  00000-0  25035-6 0  9999","MEAN_ELEMENT_THEORY":"SGP4","ECCENTRICITY":"0.00018050","CLASSIFICATION_TYPE":"U","PERIOD":"95.593","DECAY_DATE":null},{"APOAPSIS":"548.615","OBJECT_NAME":"STARLINK-1696","GP_ID":"191365199","REF_FRAME":"TEME","FILE":"3235972","INCLINATION":"53.0555","LAUNCH_DATE":"2020-10-06","ELEMENT_SET_NO":"999","MEAN_ANOMALY":"299.3453","ARG_OF_PERICENTER":"60.7739","MEAN_MOTION":"15.06401748","DECAY_DATE":null,"PERIOD":"95.592","CLASSIFICATION_TYPE":"U","ECCENTRICITY":"0.00020310","MEAN_ELEMENT_THEORY":"SGP4","EPHEMERIS_TYPE":"0","TLE_LINE1":"1 46545U 20070P   21342.88488267  .00001713  00000-0  13385-3 0  9991","OBJECT_TYPE":"PAYLOAD","MEAN_MOTION_DOT":"0.00001713","SEMIMAJOR_AXIS":"6925.343","OBJECT_ID":"2020-070P","SITE":"AFETR","REV_AT_EPOCH":"6560","RCS_SIZE":"LARGE","TIME_SYSTEM":"UTC","NORAD_CAT_ID":"46545","CENTER_NAME":"EARTH","MEAN_MOTION_DDOT":"0.0000000000000","BSTAR":"0.00013385000000","COUNTRY_CODE":"US","RA_OF_ASC_NODE":"302.9506","TLE_LINE2":"2 46545  53.0555 302.9506 0002031  60.7739 299.3453 15.06401748 65600","PERIAPSIS":"545.802","EPOCH":"2021-12-08T21:14:13.862688"},{"TLE_LINE2":"2 46546  53.0548 303.0033 0002072  55.6996 304.4189 15.06394415 65609","PERIAPSIS":"545.796","EPOCH":"2021-12-08T20:53:00.586752","MEAN_MOTION_DDOT":"0.0000000000000","BSTAR":"-0.00001697500000","COUNTRY_CODE":"US","RA_OF_ASC_NODE":"303.0033","CENTER_NAME":"EARTH","RCS_SIZE":"LARGE","NORAD_CAT_ID":"46546","TIME_SYSTEM":"UTC","SITE":"AFETR","REV_AT_EPOCH":"6560","SEMIMAJOR_AXIS":"6925.366","OBJECT_ID":"2020-070Q","OBJECT_TYPE":"PAYLOAD","MEAN_MOTION_DOT":"-0.00000535","MEAN_ELEMENT_THEORY":"SGP4","TLE_LINE1":"1 46546U 20070Q   21342.87014568 -.00000535  00000-0 -16975-4 0  9992","EPHEMERIS_TYPE":"0","ECCENTRICITY":"0.00020720","PERIOD":"95.592","DECAY_DATE":null,"CLASSIFICATION_TYPE":"U","ARG_OF_PERICENTER":"55.6996","MEAN_ANOMALY":"304.4189","MEAN_MOTION":"15.06394415","INCLINATION":"53.0548","FILE":"3235972","REF_FRAME":"TEME","LAUNCH_DATE":"2020-10-06","ELEMENT_SET_NO":"999","GP_ID":"191363947","APOAPSIS":"548.666","OBJECT_NAME":"STARLINK-1697"},{"CENTER_NAME":"EARTH","TLE_LINE2":"2 46547  53.0548 304.0689 0001795  62.8933 297.2239 15.06399607 65579","PERIAPSIS":"545.972","EPOCH":"2021-12-08T15:13:18.218496","MEAN_MOTION_DDOT":"0.0000000000000","BSTAR":"-0.00000819890000","COUNTRY_CODE":"US","RA_OF_ASC_NODE":"304.0689","SEMIMAJOR_AXIS":"6925.350","OBJECT_ID":"2020-070R","MEAN_MOTION_DOT":"-0.00000404","OBJECT_TYPE":"PAYLOAD","RCS_SIZE":"LARGE","NORAD_CAT_ID":"46547","TIME_SYSTEM":"UTC","SITE":"AFETR","REV_AT_EPOCH":"6557","ECCENTRICITY":"0.00017950","PERIOD":"95.592","DECAY_DATE":null,"CLASSIFICATION_TYPE":"U","MEAN_ELEMENT_THEORY":"SGP4","EPHEMERIS_TYPE":"0","TLE_LINE1":"1 46547U 20070R   21342.63423864 -.00000404  00000-0 -81989-5 0  9993","GP_ID":"191364197","APOAPSIS":"548.458","OBJECT_NAME":"STARLINK-1698","ARG_OF_PERICENTER":"62.8933","MEAN_ANOMALY":"297.2239","MEAN_MOTION":"15.06399607","REF_FRAME":"TEME","FILE":"3235972","INCLINATION":"53.0548","LAUNCH_DATE":"2020-10-06","ELEMENT_SET_NO":"999"}];
